JY1SAT (JO-97)          
1 43803U 18099AX  26068.68634132  .00017774  00000+0  60804-3 0  9996
2 43803  97.4249 131.3625 0004723 256.6795 103.3919 15.30302628398390
STARLINK-1513           
1 45786U 20038BJ  26068.62517786  .00011742  00000+0  40750-3 0  9990
2 45786  53.1601 191.4505 0000951 101.2977 258.8131 15.30234927316830
